OBJECT_NAME,OBJECT_ID,EPOCH,MEAN_MOTION,ECCENTRICITY,INCLINATION,RA_OF_ASC_NODE,ARG_OF_PERICENTER,MEAN_ANOMALY,EPHEMERIS_TYPE,CLASSIFICATION_TYPE,NORAD_CAT_ID,ELEMENT_SET_NO,REV_AT_EPOCH,BSTAR,MEAN_MOTION_DOT,MEAN_MOTION_DDOT
KUZGTU 1 (RS47S),2023-091AV,2026-06-05T18:47:36.611232,15.29590857,.0012243,97.5063,221.1490,133.1815,227.0450,0,U,57217,999,16263,.52897E-3,.15139E-3,0
SONATE-2,2024-043Q,2026-06-05T09:17:04.658208,15.57809925,.0006708,97.5534,306.0669,233.9854,126.0780,0,U,59112,999,12605,.50424E-3,.37545E-3,0
MESAT1,2024-125G,2026-06-05T07:44:59.359200,15.61887563,.0008373,97.2304,13.5451,250.7624,109.2729,0,U,60209,999,10771,.57057E-3,.49723E-3,0
OOV-CUBE (TUBSAT-30),2024-128F,2026-06-05T19:26:41.884800,15.02722881,.004605,61.9953,265.2423,131.2256,229.2818,0,U,60240,999,10440,.24672E-3,.3173E-4,0
COLIBRI-S (RS67S),2024-199M,2026-06-05T19:27:01.355040,15.47240898,.000694,97.3005,30.5638,331.8300,28.2574,0,U,61746,999,13565,.61525E-3,.31336E-3,0
HORS 3 (RS81S),2024-199U,2026-06-05T19:48:01.848096,15.54170176,.0004733,97.2989,32.4452,341.8052,18.3032,0,U,61753,999,13579,.71823E-3,.46841E-3,0
HORS 4 (RS82S),2024-199V,2026-06-05T19:39:13.213152,15.58602139,.000354,97.2935,33.5693,334.1168,25.9910,0,U,61754,999,13587,.80803E-3,.62189E-3,0
ARCTICSAT 1 (RS74S),2024-199AD,2026-06-05T01:02:22.230240,16.02262718,.00061877,97.2851,39.2907,198.3612,161.7446,0,U,61762,999,13617,.12270297E-2,.70668E-2,.23827113E-3
SIT-2086,2024-199AF,2026-06-05T18:56:48.663168,15.52273740,.0004787,97.2946,32.9252,314.8374,45.2489,0,U,61764,999,13266,.64449E-3,.39207E-3,0
HYPERVIEW 1G (RS66S),2024-199AP,2026-06-05T10:20:17.979360,15.72781514,.000211,97.2889,35.5812,312.1945,47.9139,0,U,61772,999,13282,.82953E-3,.112991E-2,0
ALTAIR (RS65S),2024-199AW,2026-06-05T18:47:55.817952,15.36786246,.0012329,97.3039,26.2103,355.7838,4.3300,0,U,61779,999,13536,.35471E-3,.12707E-3,0
ASRTU-1 (AO-123),2024-199AY,2026-06-05T19:50:13.098336,15.35508561,.0013535,97.3010,25.5999,357.3753,2.7417,0,U,61781,999,13218,.29017E-3,.9964E-4,0
SAMSAT-IONOSPHERE (RS75S),2024-199BB,2026-06-05T19:31:15.008160,15.56606917,.0006614,97.2956,32.4407,334.9597,25.1337,0,U,61784,999,13579,.81895E-3,.58525E-3,0
RTU MIREA 1 (RS51S),2024-199BC,2026-06-05T19:09:06.424128,15.59821108,.0006055,97.2947,33.2000,329.6290,30.4616,0,U,61785,999,13269,.94027E-3,.7596E-3,0
TEVEL2-4,2025-052D,2026-06-04T15:51:50.035392,15.34152369,.00042884,97.3926,52.0362,127.7510,232.4122,0,U,63213,999,6819,.65897715E-3,.21744E-3,0
TEVEL2-5,2025-052E,2026-06-05T11:06:33.638112,15.34015334,.0004115,97.3910,52.7894,126.1659,233.9965,0,U,63214,999,6831,.59244E-3,.1945E-3,0
TEVEL2-6,2025-052F,2026-06-04T16:36:41.612256,15.33948162,.0004351,97.3914,52.0022,129.5253,230.6375,0,U,63215,999,6819,.61616E-3,.20192E-3,0
TEVEL2-1,2025-052H,2026-06-05T10:25:58.837728,15.33457579,.0004006,97.3883,52.3839,136.2880,223.8680,0,U,63217,999,6829,.52119E-3,.16797E-3,0
TEVEL2-3,2025-052J,2026-06-04T15:31:17.786496,15.33483588,.00039786,97.3888,51.6166,138.3190,221.8356,0,U,63218,999,6817,.62480469E-3,.20177E-3,0
TEVEL2-2,2025-052K,2026-06-05T12:00:29.287008,15.33469790,.000399,97.3888,52.4514,137.6177,222.5374,0,U,63219,999,6830,.56579E-3,.18252E-3,0
TEVEL2-9,2025-052AD,2026-06-05T06:24:09.371232,15.31514886,.000665,97.3943,51.6191,165.5205,194.6228,0,U,63237,999,6820,.50636E-3,.15357E-3,0
TEVEL2-7,2025-052AE,2026-06-05T10:28:01.708896,15.31236048,.0006681,97.3949,51.7085,165.6962,194.4470,0,U,63238,999,6822,.492E-3,.14789E-3,0
TEVEL2-8,2025-052AF,2026-06-04T15:50:28.971456,15.31195553,.00065639,97.3951,50.9120,168.5625,191.5767,0,U,63239,999,6810,.59749177E-3,.17961E-3,0
INNOSAT 16 (RS92S7),2025-155C,2026-06-05T18:49:52.654080,15.25332269,.0009217,97.4562,123.9504,217.4336,142.6261,0,U,64878,999,7893,.26394E-3,.6586E-4,0
GEOSCAN 6 (RS92S6),2025-155D,2026-06-05T17:40:44.474304,15.29928431,.0006809,97.4555,125.2467,202.6989,157.3951,0,U,64879,999,7901,.40095E-3,.11554E-3,0
GEOSCAN 1 (RS92S1),2025-155E,2026-06-05T17:50:35.140128,15.30506545,.0006749,97.4553,125.3918,202.3141,157.7806,0,U,64880,999,7902,.40478E-3,.11876E-3,0
239ALFEROV (RS61S),2025-155F,2026-06-05T17:30:01.863072,15.32622633,.0006381,97.4554,125.9009,198.6483,161.4526,0,U,64881,999,7905,.50906E-3,.15982E-3,0
GEOSCAN 2 (RS92S2),2025-155Q,2026-06-05T17:44:24.694080,15.30778937,.0006609,97.4552,125.5354,186.5398,173.5757,0,U,64890,999,7903,.40907E-3,.12105E-3,0
GEOSCAN 5 (RS92S5),2025-155R,2026-06-05T18:51:38.924352,15.32944721,.000505,97.4546,126.0912,201.4368,158.6663,0,U,64891,999,7907,.52699E-3,.16714E-3,0
GEOSCAN 4 (RS92S4),2025-155S,2026-06-05T18:30:29.854368,15.33091483,.0005109,97.4549,126.1216,202.1842,157.9180,0,U,64892,999,7907,.50373E-3,.16045E-3,0
